213P/Van Ness,e,10.3827,311.2999,5.6362,3.347871,0.1608981,0.40822869,208.7489,04/15.0/2021,2000,g 10.5,4.0
# From MPC 92986
214P/LINEAR,e,15.1837,348.2526,190.2469,3.617446,0.1432521,0.48580224,284.1698,04/15.0/2021,2000,g 13.0,4.0
# From MPEC 2020-SI8
215P/NEAT,e,10.5812,56.6841,262.1494,4.327730,0.1094747,0.16683653,56.1972,04/15.0/2021,2000,g 11.0,4.0
# From MPC100284
216P/LINEAR,e,9.0575,359.8096,151.3469,3.868741,0.1295238,0.44632025,230.7313,04/15.0/2021,2000,g 13.0,4.0
# From MPC108598
217P/LINEAR,e,12.8645,125.4789,246.8426,3.950842,0.1255075,0.68868478,171.6439,04/15.0/2021,2000,g 12.0,4.0
# From MPEC 2020-K19
218P/LINEAR,e,2.7261,175.9659,59.7826,3.094368,0.1810698,0.62200681,34.9861,04/15.0/2021,2000,g 16.0,4.0
# From MPC100284
219P/LINEAR,e,11.5314,230.9745,107.4158,3.649884,0.1413466,0.35389679,213.7977,04/15.0/2021,2000,g 11.0,4.0
# From MPEC 2021-BE3
220P/McNaught,e,8.1288,150.1026,180.5283,3.115530,0.1792281,0.50173401,22.4713,04/15.0/2021,2000,g 15.0,4.0
# From MPEC 2021-F20
221P/LINEAR,e,11.4267,229.7055,40.0942,3.456404,0.1533795,0.49274378,322.1104,04/15.0/2021,2000,g 14.5,4.0
# From MPC 92277
222P/LINEAR,e,5.0968,6.7822,346.2423,2.899375,0.1996399,0.71459846,135.7043,04/15.0/2021,2000,g 20.0,4.0
# From MPEC 2021-FB5
223P/Skiff,e,27.0230,346.7706,37.8161,4.159133,0.1161983,0.41593181,93.9501,04/15.0/2021,2000,g 12.0,4.0
# From MPC 75727
224P/LINEAR-NEAT,e,13.3005,40.2107,16.7087,3.443144,0.1542664,0.40729893,277.7731,04/15.0/2021,2000,g 15.5,4.0
# From MPC 75727
225P/LINEAR,e,21.3592,14.1913,3.8672,3.650267,0.1413244,0.63800191,240.5396,04/15.0/2021,2000,g 18.0,4.0
# From MPC106349
226P/Pigott-LINEAR-Kowalski,e,44.0201,54.0021,341.0399,3.767495,0.1347799,0.52844832,227.0190,04/15.0/2021,2000,g 12.5,4.0
# From MPC102956
227P/Catalina-LINEAR,e,6.5148,48.4784,90.9728,3.558039,0.1468547,0.51094785,203.6639,04/15.0/2021,2000,g 16.5,2.0
# From MPEC 2020-L06
228P/LINEAR,e,7.9114,30.9800,115.1962,4.171375,0.1156872,0.17642738,46.3928,04/15.0/2021,2000,g 14.5,2.0
# From MPC106349
229P/Gibbs,e,26.0909,157.9073,223.9634,3.930005,0.1265069,0.37700493,180.2302,04/15.0/2021,2000,g 13.0,4.0
# From MPC110497
230P/LINEAR,e,15.4828,107.0172,313.3986,3.454854,0.1534827,0.54622193,308.0966,04/15.0/2021,2000,g 13.0,4.0
# From MPEC 2020-K19
231P/LINEAR-NEAT,e,12.3366,133.0122,43.2942,4.025636,0.1220260,0.24756348,81.5814,04/15.0/2021,2000,g 14.5,2.0
# From MPC112394
232P/Hill,e,14.6337,56.0158,53.4141,4.480063,0.1039389,0.33416898,76.9273,04/15.0/2021,2000,g 11.5,4.0
# From MPEC 2021-FB5
233P/La Sagra,e,11.2836,74.9233,27.0462,3.030657,0.1868095,0.41182380,36.4945,04/15.0/2021,2000,g 15.0,4.0
# From MPC110497
234P/LINEAR,e,11.5301,179.5633,357.2706,3.800952,0.1330043,0.25465815,188.4606,04/15.0/2021,2000,g 12.0,4.0
# From MPC110497
235P/LINEAR,e,8.9255,203.4783,333.3773,3.968781,0.1246575,0.32253955,140.2222,04/15.0/2021,2000,g 12.0,4.0
# From MPC107688
236P/LINEAR,e,16.3363,245.6278,119.2226,3.730347,0.1367982,0.50885660,169.7682,04/15.0/2021,2000,g 14.0,4.0
# From MPC109593
237P/LINEAR,e,14.0168,245.3979,25.2111,3.512448,0.1497232,0.43454458,246.2988,04/15.0/2021,2000,g 14.5,2.0
# From MPC107688
238P/Read,e,1.2642,51.6376,324.5550,3.165386,0.1750104,0.25227983,286.9261,04/15.0/2021,2000,g 14.5,4.0
# From MPEC 2021-F20
239P/LINEAR,e,11.2974,255.9137,220.4496,4.470791,0.1042624,0.63016167,86.1575,04/15.0/2021,2000,g 17.5,2.0
# From MPC109593
240P/NEAT,e,23.5095,74.9153,351.9655,3.866954,0.1296136,0.44890053,138.1028,04/15.0/2021,2000,g 11.0,4.0
# From MPEC 2020-W26
241P/LINEAR,e,21.1066,305.4834,111.4196,4.915733,0.0904319,0.60992720,350.7959,04/15.0/2021,2000,g 13.5,4.0
# From MPC 81861
242P/Spahr,e,32.4895,180.4261,246.0600,5.481986,0.0767887,0.27807641,255.6818,04/15.0/2021,2000,g  8.0,4.0
# From MPC111774
243P/NEAT,e,7.6406,87.6443,283.5277,3.831152,0.1314347,0.36007323,126.5183,04/15.0/2021,2000,g 12.5,4.0
# From MPEC 2020-W26
244P/Scotti,e,2.2594,353.9905,92.9560,4.894799,0.0910127,0.19874338,307.1844,04/15.0/2021,2000,g  9.0,4.0
# From MPEC 2020-K19
245P/WISE,e,21.1977,316.6468,316.8649,4.044118,0.1211905,0.45727214,140.7407,04/15.0/2021,2000,g 14.0,4.0
# From MPEC 2021-FB5
246P/NEAT,e,15.9863,78.7473,176.3069,4.016691,0.1224338,0.28699224,6.2620,04/15.0/2021,2000,g 10.5,4.0
# From MPEC 2021-F20
247P/LINEAR,e,13.6531,54.0088,47.4779,3.969594,0.1246192,0.62423785,107.8492,04/15.0/2021,2000,g 16.5,2.0
# From MPC 75730
248P/Gibbs,e,6.3483,207.7661,209.8727,5.991554,0.0672040,0.63819649,251.4330,04/15.0/2021,2000,g 14.0,4.0
# From MPEC 2021-BE3
249P/LINEAR,e,8.3951,239.1691,65.6235,2.762467,0.2146636,0.82011892,62.1456,04/15.0/2021,2000,g 15.5,4.0
# From MPC110497
250P/Larson,e,13.1841,73.5439,46.1317,3.760647,0.1351482,0.40134091,158.2350,04/15.0/2021,2000,g 14.5,4.0
# From MPC104795
251P/LINEAR,e,23.3957,219.3849,31.2831,3.510638,0.1498391,0.50515689,205.0880,04/15.0/2021,2000,g 16.5,2.0
# From MPC102956
252P/LINEAR,e,10.4092,190.9469,343.3009,3.050335,0.1850047,0.67199237,343.9157,04/15.0/2021,2000,g 17.5,4.0
# From MPEC 2021-FB5
253P/PANSTARRS,e,4.9433,146.8822,230.6368,3.467016,0.1526758,0.41380055,163.7853,04/15.0/2021,2000,g 14.5,4.0
# From MPEC 2021-F20
254P/McNaught,e,32.5727,129.1748,219.5038,4.611944,0.0995126,0.31978581,19.6268,04/15.0/2021,2000,g 11.0,4.0
# From NK 2214
255P/Levy,e,13.5004,276.0086,185.7644,2.943111,0.1952064,0.71345810,260.4881,04/15.0/2021,2000,g  9.0,4.0
# From MPC 84027
256P/LINEAR,e,27.6287,81.3514,124.2686,4.637318,0.0986970,0.41811564,291.2637,04/15.0/2021,2000,g 14.0,2.0
# From MPEC 2020-W26
257P/Catalina,e,20.2234,207.7343,117.6494,3.761905,0.1350804,0.43047218,29.2148,04/15.0/2021,2000,g 11.5,4.0
# From MPC 79655
258P/PANSTARRS,e,6.7460,126.2488,26.0418,4.399524,0.1068060,0.20870959,32.0261,04/15.0/2021,2000,g 13.0,4.0
# From MPC106349
259P/Garradd,e,15.8900,51.4522,257.6261,2.730244,0.2184751,0.33856134,294.5923,04/15.0/2021,2000,g 15.5,4.0
# From MPEC 2020-SI8
260P/McNaught,e,15.0560,349.3399,18.4078,3.622750,0.1429376,0.60908704,83.3206,04/15.0/2021,2000,g 13.5,4.0
# From MPEC 2019-TG9
261P/Larson,e,6.0755,291.1601,67.1482,3.490118,0.1511625,0.42319071,100.6895,04/15.0/2021,2000,g 14.0,4.0
# From MPC 82322
262P/McNaught-Russell,e,29.2085,217.8882,171.0087,6.874875,0.0546773,0.81553312,167.1501,04/15.0/2021,2000,g 13.5,4.0
# From MPC 89018
263P/Gibbs,e,11.5387,105.7528,34.5271,3.050896,0.1849537,0.59180649,238.6433,04/15.0/2021,2000,g  9.0,4.0
# From MPC114608
264P/Larsen,e,25.1375,220.6987,346.7298,3.896039,0.1281649,0.37480619,79.3436,04/15.0/2021,2000,g 13.0,4.0
# From MPC 79870
265P/LINEAR,e,14.3650,342.9272,33.4259,4.251287,0.1124407,0.64740456,7.3035,04/15.0/2021,2000,g 14.5,4.0
# From MPEC 2019-TG9
266P/Christensen,e,3.4262,4.9981,97.8059,3.534426,0.1483289,0.33942226,53.4905,04/15.0/2021,2000,g 12.5,4.0
# From MPC114608
267P/LONEOS,e,6.1385,228.6298,114.1328,3.211911,0.1712217,0.61424078,170.7268,04/15.0/2021,2000,g 19.5,4.0
# From MPC 92277
268P/Bernardi,e,16.1487,127.5878,359.9405,4.545379,0.1017066,0.47396502,221.9316,04/15.0/2021,2000,g 14.0,4.0
# From MPC104795
269P/Jedicke,e,7.0721,241.7076,225.8859,7.077574,0.0523453,0.43042797,125.0782,04/15.0/2021,2000,g 10.0,4.0
# From MPC 88332
270P/Gehrels,e,2.9193,222.9761,209.8444,6.666368,0.0572625,0.46735946,164.2946,04/15.0/2021,2000,g  8.0,4.0
# From MPC 92277
271P/van Houten-Lemmon,e,6.8694,9.3065,36.4077,7.044312,0.0527165,0.39405154,149.4326,04/15.0/2021,2000,g 11.0,4.0
# From MPC 81862
272P/NEAT,e,18.0762,109.4667,27.9449,4.456379,0.1047685,0.45428902,311.9919,04/15.0/2021,2000,g 16.0,2.0
# From MPC 82723
273P/Pons-Gambart,e,136.7934,320.4011,20.3253,31.80859,0.0054940,0.97409428,0.0000,12/18.0271/2012,2000,g 11.5,4.0
# From MPC 88332
274P/Tombaugh-Tenagra,e,15.8174,81.3388,38.4908,4.372484,0.1077983,0.43896841,321.3475,04/15.0/2021,2000,g 13.0,4.0
# From MPC 81862
275P/Hermann,e,21.2752,348.7572,174.0710,5.772706,0.0710616,0.71238667,215.8754,04/15.0/2021,2000,g 17.0,4.0
# From MPEC 2020-K19
276P/Vorobjov,e,14.8122,211.4031,199.7523,5.316688,0.0803975,0.26722040,252.1963,04/15.0/2021,2000,g 11.5,4.0
# From MPEC 2021-FB5
277P/LINEAR,e,16.7783,276.3450,152.3158,3.852839,0.1303265,0.50569814,13.7923,04/15.0/2021,2000,g 14.0,4.0
# From MPEC 2020-W26
278P/McNaught,e,6.6862,15.4142,238.0963,3.696373,0.1386885,0.43549553,29.8120,04/15.0/2021,2000,g 14.0,4.0
# From MPC100285
279P/La Sagra,e,5.0524,346.2320,5.7838,3.574435,0.1458455,0.39842581,252.8621,04/15.0/2021,2000,g 14.0,4.0
# From MPC 89013
280P/Larsen,e,11.7754,131.3926,104.7970,4.529339,0.1022473,0.41769209,273.9506,04/15.0/2021,2000,g 12.5,4.0
# From MPC 83145
281P/MOSS,e,4.7196,87.1760,26.7631,4.871412,0.0916688,0.17181769,299.6328,04/15.0/2021,2000,g 11.0,4.0
# From MPC xxxxx
282P/,e,5.8111,9.2947,217.6063,4.242592,0.1127865,0.18892969,338.2923,04/15.0/2021,2000,g 13.5,2.0
# From MPEC 2021-BE3
283P/Spacewatch,e,14.4547,161.1292,22.2551,4.139632,0.1170204,0.48494028,342.9116,04/15.0/2021,2000,g 16.0,2.0
# From MPEC 2020-K19
284P/McNaught,e,11.8605,144.2638,202.5137,3.679822,0.1396252,0.37621739,338.9301,04/15.0/2021,2000,g 13.0,4.0
# From MPC 85339
285P/LINEAR,e,25.0355,185.4989,178.4151,4.508288,0.1029643,0.61835015,294.3626,04/15.0/2021,2000,g 15.0,4.0
# From MPC 90771
286P/Christensen,e,17.0450,283.9595,24.8227,4.109443,0.1183122,0.42534474,313.5537,04/15.0/2021,2000,g 14.0,4.0
# From MPC 96868
287P/Christensen,e,16.3199,139.0451,188.9169,4.165856,0.1159171,0.27089144,266.0858,04/15.0/2021,2000,g 13.5,4.0
# From MPC xxxxx
288P/,e,3.2395,83.1874,280.5460,3.049555,0.1850757,0.20141475,300.3932,04/15.0/2021,2000,g 16.0,2.0
# From MPEC 2021-F20
289P/Blanpain,e,5.8946,68.8859,9.8669,3.047086,0.1853007,0.68542155,89.1364,04/15.0/2021,2000,g 19.0,4.0
# From MPC 95214
290P/Jager,e,20.2004,302.6891,181.9686,6.202715,0.0638016,0.63088166,167.2854,04/15.0/2021,2000,g 10.5,4.0
# From MPC 89314
291P/NEAT,e,6.3098,238.0798,173.8149,4.521874,0.1025006,0.43564866,283.0170,04/15.0/2021,2000,g 13.0,4.0
# From MPC115887
